STARLINK-3826           
1 52347C 22045S   26095.89701389  .00033334  00000+0  20898-2 0   952
2 52347  53.2152  76.9888 0001416  86.1746  18.4922 15.08830828    11
STARLINK-3829           
1 52348C 22045T   26095.87548611  .00038571  00000+0  24187-2 0   951
2 52348  53.2149  77.0780 0001344 102.7089 350.2469 15.08819608    12
STARLINK-3819           
1 52349C 22045U   26095.96784722  .00006095  00000+0  38202-3 0   957
2 52349  53.2151  76.6630 0001334  94.2409  80.6950 15.08852245    18
STARLINK-3754           
1 52350C 22045V   26095.90534722  .00030326  00000+0  19007-2 0   951
2 52350  53.2154  76.9451 0001386  95.8936 179.3598 15.08841106    14
STARLINK-3838           
1 52352C 22045X   26095.97687500  .00005830  00000+0  36548-3 0   955
2 52352  53.2162  76.6232 0001148 100.6941 263.3134 15.08842925    16
STARLINK-3807           
1 52353C 22045Y   26095.79215278  .00044795  00000+0  28113-2 0   956
2 52353  53.2155  77.4522 0001195  97.6328 302.5986 15.08786553    11
STARLINK-3877           
1 52355C 22045AA  26095.94006944  .00016409  00000+0  10287-2 0   957
2 52355  53.2160  76.7885 0001445  95.3427  48.6245 15.08838728    14
STARLINK-3801           
1 52356C 22045AB  26095.96368056  .00013304  00000+0  83402-3 0   956
2 52356  53.2162  76.7098 0001418  94.4660 237.8096 15.08843043    14
STARLINK-3821           
1 52357C 22045AC  26095.90465278  .00035469  00000+0  22239-2 0   951
2 52357  53.2162  76.9472 0001360  96.6052 254.9019 15.08824736    11
STARLINK-3837           
1 52358C 22045AD  26095.83243056  .00048283  00000+0  30271-2 0   955
2 52358  53.2158  77.2707 0001670 102.3383 316.6403 15.08820985    13
STARLINK-3853           
1 52359C 22045AE  26095.92201389  .00026173  00000+0  16409-2 0   950
2 52359  53.2164  76.8798 0001015  86.1820  14.4664 15.08832489    18
STARLINK-3728           
1 52361C 22045AG  26095.84354167  .00045971  00000+0  28821-2 0   955
2 52361  53.2163  77.2219 0001342  93.4237 345.9573 15.08822640    18
STARLINK-3848           
1 52362C 22045AH  26095.89631944  .00026293  00000+0  16491-2 0   958
2 52362  53.2166  66.9832 0001447  86.6335  14.5147 15.08817664    13
STARLINK-3830           
1 52363C 22045AJ  26095.90812500  .00031929  00000+0  20017-2 0   951
2 52363  53.2162  76.9314 0001716  88.8616   1.5070 15.08831137    13
STARLINK-3820           
1 52364C 22045AK  26095.97340278 -.00004315  00000+0 -27043-3 0   955
2 52364  53.2165  66.5509 0001479  93.8331 146.3521 15.08858226    11
STARLINK-3874           
1 52365C 22045AL  26095.88659722  .00032973  00000+0  20671-2 0   951
2 52365  53.2161  67.0269 0001618  99.3709 268.9916 15.08830126    10
STARLINK-3808           
1 52366C 22045AM  26095.86229167  .00040790  00000+0  25575-2 0   950
2 52366  53.2165  67.1366 0001408  95.2314 241.0511 15.08822442    13
STARLINK-3817           
1 52367C 22045AN  26095.90118056  .00023112  00000+0  14488-2 0   950
2 52367  53.2168  66.9620 0001481  94.5305  53.0875 15.08837829    19
STARLINK-3834           
1 52368C 22045AP  26095.89284722  .00026310  00000+0  16504-2 0   957
2 52368  53.2159  66.9992 0001310  90.3393 112.0342 15.08812795    14
STARLINK-3841           
1 52369C 22045AQ  26095.93381944  .00016411  00000+0  10288-2 0   951
2 52369  53.2168  66.8151 0001451 101.9260 243.0680 15.08841669    11
STARLINK-3827           
1 52370C 22045AR  26095.91576389  .00021213  00000+0  13296-2 0   958
2 52370  53.2165  66.9070 0001922  92.9189 188.7388 15.08844234    14
STARLINK-3798           
1 52371C 22045AS  26095.89562500  .00024935  00000+0  15637-2 0   951
2 52371  53.2163  66.9977 0001461  93.2926  98.9425 15.08823463    15
STARLINK-3796           
1 52372C 22045AT  26095.94493056  .00007953  00000+0  49847-3 0   959
2 52372  53.2158  66.7651 0001406  87.6287  57.7635 15.08850471    18
STARLINK-3550           
1 52373C 22045AU  26095.97201389 -.00004113  00000+0 -25784-3 0   950
2 52373  53.2153  66.6446 0001467  93.7084 258.8615 15.08851261    15
STARLINK-3762           
1 52374C 22045AV  26095.97826389 -.00007431  00000+0 -46479-3 0   954
2 52374  53.2155  66.6168 0000964  90.8621 275.6450 15.08936240    10
STARLINK-3785           
1 52375C 22045AW  26095.92687500  .00018711  00000+0  11727-2 0   958
2 52375  53.2156  66.8467 0001237  96.8861 330.3799 15.08846159    16
STARLINK-3805           
1 52377C 22045AY  26095.97895833 -.00005966  00000+0 -37407-3 0   959
2 52377  53.2162  66.8342 0001622  94.3060 195.7829 15.08843058    11
STARLINK-3806           
1 52378C 22045AZ  26095.95951389  .00000718  00000+0  45010-4 0   955
2 52378  53.2159  66.7018 0001370  87.3611 257.2932 15.08849612    12
STARLINK-3800           
1 52379C 22045BA  26095.90951389  .00024613  00000+0  15430-2 0   952
2 52379  53.2154  66.9261 0001395  95.7134 317.1901 15.08836945    17
STARLINK-3793           
1 52380C 22045BB  26095.91923611  .00005842  00000+0  36620-3 0   950
2 52380  53.2160  56.9116 0001410  95.4746 125.2465 15.08847565    11
STARLINK-3799           
1 52382C 22045BD  26095.98312500  .00145540  00000+0  86103-2 0   958
2 52382  53.2163  66.4198 0001470  72.5242 176.1591 15.10881429    10
STARLINK-3811           
1 52383C 22045BE  26095.88868056  .00020447  00000+0  12830-2 0   954
2 52383  53.2171  57.0468 0001525  96.8291 137.9195 15.08804109    12
STARLINK-3870           
1 52451C 22049A   26095.89631944  .01021600  00000+0  26105-1 0   951
2 52451  53.2133 304.1631 0001325  92.4209  60.9423 15.38384532    18
STARLINK-3909           
1 52452C 22049B   26095.95256944  .00020520  00000+0  12870-2 0   956
2 52452  53.2163 306.6053 0001445  80.8555 306.1565 15.08821699    14
STARLINK-3872           
1 52453C 22049C   26095.79631944 -.00025512  00000+0 -16000-2 0   953
2 52453  53.2161 307.4370 0001372  84.1190 273.6170 15.08847649    18
STARLINK-3888           
1 52454C 22049D   26095.90118056 -.00000907  00000+0 -56932-4 0   952
2 52454  53.2164 306.9663 0001350  86.8506 100.8530 15.08816412    12
STARLINK-3890           
1 52455C 22049E   26095.80395833 -.00025571  00000+0 -16034-2 0   953
2 52455  53.2159 307.4027 0001386  81.3940 332.6517 15.08851990    18
STARLINK-3896           
1 52456C 22049F   26095.79701389 -.00036883  00000+0 -23125-2 0   956
2 52456  53.2160 307.4334 0001325  76.5692 319.7057 15.08861839    13
STARLINK-3899           
1 52457C 22049G   26095.76437500 -.00024783  00000+0 -15541-2 0   954
2 52457  53.2156 307.5685 0001658  96.7515 147.3722 15.08850251    16
STARLINK-3898           
1 52458C 22049H   26095.93173611  .00009327  00000+0  58497-3 0   957
2 52458  53.2157 306.8274 0001608  79.9988   8.4988 15.08827696    14
STARLINK-3856           
1 52459C 22049J   26095.91506944  .00006285  00000+0  39415-3 0   954
2 52459  53.2161 296.9040 0001567  75.9352   2.1933 15.08828863    13
STARLINK-3900           
1 52461C 22049L   26095.94562500  .00041211  00000+0  25845-2 0   959
2 52461  53.2161 286.7653 0001415  82.5659 176.6094 15.08814438    17
STARLINK-3903           
1 52462C 22049M   26095.97131944 -.00043112  00000+0 -27048-2 0   958
2 52462  53.2158 296.6600 0001427  90.2360 328.5022 15.08841765    16
STARLINK-3885           
1 52463C 22049N   26095.87895833  .00014595  00000+0  91545-3 0   957
2 52463  53.2165 287.0647 0001425  83.5633 193.2975 15.08821325    10
STARLINK-3904           
1 52464C 22049P   26095.89631944 -.00003930  00000+0 -24646-3 0   952
2 52464  53.2160 296.9880 0001454  81.2449 274.9738 15.08837472    10
STARLINK-3863           
1 52465C 22049Q   26095.78659722 -.00017542  00000+0 -11002-2 0   950
2 52465  53.2159 287.4784 0001362  86.4890  68.4130 15.08842170    15
STARLINK-3873           
1 52467C 22049S   26095.92687500  .00009855  00000+0  61802-3 0   953
2 52467  53.2156 296.8494 0001458  80.5263 121.7569 15.08829486    15
STARLINK-3864           
1 52468C 22049T   26095.87479167 -.00022510  00000+0 -14118-2 0   958
2 52468  53.2154 297.0822 0001366  80.1834 279.0276 15.08843088    16
STARLINK-3828           
1 52469C 22049U   26095.91298611  .00015853  00000+0  99421-3 0   958
2 52469  53.2156 296.9188 0001447  81.0772  85.7041 15.08826714    12
STARLINK-3859           
1 52470C 22049V   26095.79840278 -.00022217  00000+0 -13929-2 0   950
2 52470  53.2158 297.4243 0002321  88.7753 255.1509 15.08855232    18
STARLINK-3862           
1 52471C 22049W   26095.97270833  .00045621  00000+0  28612-2 0   952
2 52471  53.2155 296.6531 0001395  89.6377  56.5115 15.08810320    14
STARLINK-3881           
1 52472C 22049X   26095.94840278 -.00027213  00000+0 -17073-2 0   954
2 52472  53.2160 296.7508 0001384  87.0998  12.2773 15.08833790    10
STARLINK-3879           
1 52473C 22049Y   26095.94562500  .00019870  00000+0  12460-2 0   957
2 52473  53.2158 296.7639 0001605  87.2074 316.9520 15.08828402    14
STARLINK-3882           
1 52475C 22049AA  26095.98312500  .00049778  00000+0  31214-2 0   954
2 52475  53.2156 296.8194 0001389  81.4556  86.3504 15.08814445    13
STARLINK-3835           
1 52476C 22049AB  26095.92131944  .00031171  00000+0  19548-2 0   954
2 52476  53.2160 287.1148 0001308  91.8357   9.8845 15.08818893    15
STARLINK-3860           
1 52477C 22049AC  26095.96298611  .00038276  00000+0  24005-2 0   951
2 52477  53.2163 286.6878 0001318  89.8572 323.6829 15.08814952    11
STARLINK-3825           
1 52478C 22049AD  26095.93312500  .00014439  00000+0  90551-3 0   958
2 52478  53.2160 296.8192 0001393  79.8033 336.4540 15.08827023    10
STARLINK-3878           
1 52479C 22049AE  26095.96715278  .00051491  00000+0  32291-2 0   956
2 52479  53.2161 286.6704 0001489  64.9120  91.1700 15.08809881    11
STARLINK-3839           
1 52480C 22049AF  26095.89215278  .00009174  00000+0  57532-3 0   952
2 52480  53.2160 297.0039 0001419  85.3739 128.2031 15.08830564    16
